IRIDIUM 144             
1 43249U 18030A   23276.16882868  .00000078  00000+0  20770-4 0  9995
2 43249  86.4009 343.3542 0002047  95.3348 264.8081 14.34215442288546
IRIDIUM 149             
1 43250U 18030B   23275.75656213  .00000473  00000+0  16188-3 0  9990
2 43250  86.4010 343.5040 0001921  95.3319 264.8096 14.34221370288489
IRIDIUM 157             
1 43251U 18030C   23276.19420712  .00000484  00000+0  16590-3 0  9992
2 43251  86.4010 343.3527 0002427  92.1646 267.9827 14.34219167288520
IRIDIUM 140             
1 43252U 18030D   23275.72485135  .00000434  00000+0  14803-3 0  9991
2 43252  86.4011 343.5634 0001928  89.3036 270.8381 14.34218471288513
IRIDIUM 145             
1 43253U 18030E   23276.54938707  .00000485  00000+0  16621-3 0  9997
2 43253  86.4010 343.1937 0001857 101.3279 258.8125 14.34220758288568
IRIDIUM 146             
1 43254U 18030F   23276.18152830  .00000485  00000+0  16614-3 0  9995
2 43254  86.4010 343.3628 0002067 101.8380 258.3047 14.34220492288529
IRIDIUM 148             
1 43255U 18030G   23275.80096484  .00000429  00000+0  14605-3 0  9992
2 43255  86.4012 343.5500 0002187 103.2482 256.8958 14.34218751288502
IRIDIUM 142             
1 43256U 18030H   23276.46693467  .00000478  00000+0  16366-3 0  9990
2 43256  86.4007 343.1968 0002154  97.4656 262.6785 14.34215089288562
